NORAD_CAT_ID,OBJECT_NAME,OBJECT_TYPE,EPOCH,MEAN_MOTION,ECCENTRICITY,INCLINATION,RA_OF_ASC_NODE,ARG_OF_PERICENTER,MEAN_ANOMALY,BSTAR,MEAN_MOTION_DOT,MEAN_MOTION_DDOT,TLE_LINE0,TLE_LINE1,TLE_LINE2,SEMIMAJOR_AXIS,PERIOD,APOGEE,PERIGEE,DECAYED
49144.0,STARLINK-3100,PAYLOAD,2023-06-04 13:23:08,14.98327002,0.0003344,69.9991,318.8253,269.4436,90.634,0.00046974,5.516e-05,0.0,0 STARLINK-3100,1 49144U 21082Q   23155.55774158  .00005516  00000-0  46974-3 0  9993,2 49144  69.9991 318.8253 0003344 269.4436  90.6340 14.98327002 94826,6950.202,96.107,574.391,569.743,0.0
49144.0,STARLINK-3100,PAYLOAD,2023-06-04 19:47:41,14.98350229,0.0003394,70.0007,318.1515,270.5705,89.5065,0.00078495,9.29e-05,0.0,0 STARLINK-3100,1 49144U 21082Q   23155.82478162  .00009290  00000-0  78495-3 0  9995,2 49144  70.0007 318.1515 0003394 270.5705  89.5065 14.98350229 94860,6950.13,96.106,574.354,569.636,0.0
49144.0,STARLINK-3100,PAYLOAD,2023-06-05 03:48:21,14.98352421,0.0003394,70.0009,317.3095,271.3152,88.7619,0.0004998,5.879e-05,0.0,0 STARLINK-3100,1 49144U 21082Q   23156.15857705  .00005879  00000-0  49980-3 0  9992,2 49144  70.0009 317.3095 0003394 271.3152  88.7619 14.98352421 94919,6950.124,96.106,574.347,569.63,0.0
49144.0,STARLINK-3100,PAYLOAD,2023-06-05 13:25:09,14.98345834,0.00032,70.0014,316.2997,272.2342,87.8451,0.00015707,1.782e-05,0.0,0 STARLINK-3100,1 49144U 21082Q   23156.55913528  .00001782  00000-0  15707-3 0  9991,2 49144  70.0014 316.2997 0003200 272.2342  87.8451 14.98345834 94971,6950.144,96.106,574.233,569.785,0.0
49144.0,STARLINK-3100,PAYLOAD,2023-06-05 16:37:25,14.98345698,0.0003211,70.0011,315.9632,272.0461,88.033,0.00018063,2.064e-05,0.0,0 STARLINK-3100,1 49144U 21082Q   23156.69265453  .00002064  00000-0  18063-3 0  9995,2 49144  70.0011 315.9632 0003211 272.0461  88.0330 14.98345698 94991,6950.144,96.106,574.241,569.778,0.0
49144.0,STARLINK-3100,PAYLOAD,2023-06-05 21:25:49,14.98347993,0.0003207,70.0012,315.4581,272.0038,88.0754,0.000198,2.271e-05,0.0,0 STARLINK-3100,1 49144U 21082Q   23156.89293128  .00002271  00000-0  19800-3 0  9997,2 49144  70.0012 315.4581 0003207 272.0038  88.0754 14.98347993 95020,6950.137,96.106,574.231,569.773,0.0
49144.0,STARLINK-3100,PAYLOAD,2023-06-06 10:14:53,14.98339475,0.0003013,70.0016,314.1117,270.2584,89.823,-0.00011773,-1.498e-05,0.0,0 STARLINK-3100,1 49144U 21082Q   23157.42701157 -.00001498  00000-0 -11773-3 0  9996,2 49144  70.0016 314.1117 0003013 270.2584  89.8230 14.98339475 95109,6950.164,96.106,574.123,569.935,0.0
49144.0,STARLINK-3100,PAYLOAD,2023-06-06 11:51:01,14.98337486,0.0003039,70.0016,313.9433,272.3281,87.753,-0.00015207,-1.907e-05,0.0,0 STARLINK-3100,1 49144U 21082Q   23157.49377212 -.00001907  00000-0 -15207-3 0  9995,2 49144  70.0016 313.9433 0003039 272.3281  87.7530 14.98337486 95113,6950.17,96.107,574.147,569.923,0.0
49144.0,STARLINK-3100,PAYLOAD,2023-06-06 18:15:34,14.98337374,0.0003023,70.0001,313.2706,271.8604,88.2209,-7.4959e-05,-9.87e-06,0.0,0 STARLINK-3100,1 49144U 21082Q   23157.76081524 -.00000987  00000-0 -74959-4 0  9990,2 49144  70.0001 313.2706 0003023 271.8604  88.2209 14.98337374 95158,6950.17,96.107,574.136,569.934,0.0
49144.0,STARLINK-3100,PAYLOAD,2023-06-07 03:52:22,14.98335515,0.0003144,69.9999,312.261,271.4945,88.5853,-6.1377e-05,-8.25e-06,0.0,0 STARLINK-3100,1 49144U 21082Q   23158.16137392 -.00000825  00000-0 -61377-4 0  9991,2 49144  69.9999 312.2610 0003144 271.4945  88.5853 14.98335515 95212,6950.176,96.107,574.226,569.856,0.0
49144.0,STARLINK-3100,PAYLOAD,2023-06-07 11:53:02,14.98333793,0.0003174,69.9998,311.4196,271.3567,88.7228,-1.9783e-05,-3.29e-06,0.0,0 STARLINK-3100,1 49144U 21082Q   23158.49517307 -.00000329  00000-0 -19783-4 0  9998,2 49144  69.9998 311.4196 0003174 271.3567  88.7228 14.98333793 95262,6950.181,96.107,574.252,569.84,0.0
49144.0,STARLINK-3100,PAYLOAD,2023-06-07 19:53:43,14.98335246,0.0003229,69.9998,310.5768,270.0684,90.0105,-6.7588e-06,-1.74e-06,0.0,0 STARLINK-3100,1 49144U 21082Q   23158.82897081 -.00000174  00000-0 -67588-5 0  9990,2 49144  69.9998 310.5768 0003229 270.0684  90.0105 14.98335246 95315,6950.177,96.107,574.286,569.797,0.0
49144.0,STARLINK-3100,PAYLOAD,2023-06-08 10:18:55,14.98324606,0.0003199,69.9999,309.0614,269.2972,90.7821,0.00022421,2.583e-05,0.0,0 STARLINK-3100,1 49144U 21082Q   23159.42981157  .00002583  00000-0  22421-3 0  9994,2 49144  69.9999 309.0614 0003199 269.2972  90.7821 14.98324606 95405,6950.21,96.107,574.298,569.851,0.0
49144.0,STARLINK-3100,PAYLOAD,2023-06-08 11:55:03,14.98330065,0.0003225,69.9998,308.8936,270.2148,89.8641,0.00010945,1.213e-05,0.0,0 STARLINK-3100,1 49144U 21082Q   23159.49657066  .00001213  00000-0  10945-3 0  9997,2 49144  69.9998 308.8936 0003225 270.2148  89.8641 14.98330065 95411,6950.193,96.107,574.299,569.816,0.0
49144.0,STARLINK-3100,PAYLOAD,2023-06-08 13:31:11,14.98330408,0.0003224,69.9998,308.7252,270.1287,89.9503,0.00011204,1.244e-05,0.0,0 STARLINK-3100,1 49144U 21082Q   23159.56333045  .00001244  00000-0  11204-3 0  9996,2 49144  69.9998 308.7252 0003224 270.1287  89.9503 14.98330408 95423,6950.192,96.107,574.297,569.816,0.0
49144.0,STARLINK-3100,PAYLOAD,2023-06-08 16:43:27,14.98334167,0.00032,69.9999,308.3883,269.5203,90.559,0.00011852,1.322e-05,0.0,0 STARLINK-3100,1 49144U 21082Q   23159.69684790  .00001322  00000-0  11852-3 0  9992,2 49144  69.9999 308.3883 0003200 269.5203  90.5590 14.98334167 95446,6950.18,96.107,574.269,569.821,0.0
49144.0,STARLINK-3100,PAYLOAD,2023-06-09 08:44:48,14.98326748,0.0003182,70.0001,306.705,269.4455,90.634,2.6244e-05,2.2e-06,0.0,0 STARLINK-3100,1 49144U 21082Q   23160.36445483  .00000220  00000-0  26244-4 0  9990,2 49144  70.0001 306.7050 0003182 269.4455  90.6340 14.98326748 95549,6950.203,96.107,574.28,569.856,0.0
49144.0,STARLINK-3100,PAYLOAD,2023-06-09 10:20:56,14.9832667,0.0003182,70.0001,306.5367,269.4251,90.6543,2.3097e-05,1.83e-06,0.0,0 STARLINK-3100,1 49144U 21082Q   23160.43121496  .00000183  00000-0  23097-4 0  9994,2 49144  70.0001 306.5367 0003182 269.4251  90.6543 14.98326670 95552,6950.203,96.107,574.28,569.857,0.0
49144.0,STARLINK-3100,PAYLOAD,2023-06-09 16:45:29,14.98329876,0.0003188,70.0001,305.8636,269.4429,90.6365,3.088e-05,2.75e-06,0.0,0 STARLINK-3100,1 49144U 21082Q   23160.69825301  .00000275  00000-0  30880-4 0  9998,2 49144  70.0001 305.8636 0003188 269.4429  90.6365 14.98329876 95593,6950.193,96.107,574.274,569.843,0.0
49144.0,STARLINK-3100,PAYLOAD,2023-06-10 08:46:49,14.9833469,0.000319,70.0,304.1804,269.6234,90.456,6.4312e-05,6.75e-06,0.0,0 STARLINK-3100,1 49144U 21082Q   23161.36584925  .00000675  00000-0  64312-4 0  9998,2 49144  70.0000 304.1804 0003190 269.6234  90.4560 14.98334690 95696,6950.178,96.107,574.26,569.826,0.0
49144.0,STARLINK-3100,PAYLOAD,2023-06-10 19:59:45,14.98338877,0.0003183,70.0,303.0022,269.2268,90.8526,9.1781e-05,1.003e-05,0.0,0 STARLINK-3100,1 49144U 21082Q   23161.83316452  .00001003  00000-0  91781-4 0  9994,2 49144  70.0000 303.0022 0003183 269.2268  90.8526 14.98338877 95766,6950.165,96.106,574.243,569.818,0.0
49144.0,STARLINK-3100,PAYLOAD,2023-06-11 15:13:22,14.98332734,0.0003233,69.9999,300.9819,271.1335,88.9454,0.00010867,1.204e-05,0.0,0 STARLINK-3100,1 49144U 21082Q   23162.63428708  .00001204  00000-0  10867-3 0  9999,2 49144  69.9999 300.9819 0003233 271.1335  88.9454 14.98332734 95880,6950.184,96.107,574.296,569.802,0.0
49144.0,STARLINK-3100,PAYLOAD,2023-06-12 02:26:18,14.98333208,0.0003196,70.0001,299.804,270.296,89.7832,8.2613e-05,8.93e-06,0.0,0 STARLINK-3100,1 49144U 21082Q   23163.10160727  .00000893  00000-0  82613-4 0  9998,2 49144  70.0001 299.8040 0003196 270.2960  89.7832 14.98333208 95955,6950.183,96.107,574.269,569.827,0.0
49144.0,STARLINK-3100,PAYLOAD,2023-06-12 15:15:23,14.98333016,0.0003094,70.0004,298.4571,270.0622,90.0183,-3.3561e-06,-1.33e-06,0.0,0 STARLINK-3100,1 49144U 21082Q   23163.63568854 -.00000133  00000-0 -33561-5 0  9997,2 49144  70.0004 298.4571 0003094 270.0622  90.0183 14.98333016 96033,6950.184,96.107,574.199,569.898,0.0
49144.0,STARLINK-3100,PAYLOAD,2023-06-13 08:52:52,14.98329487,0.0003158,70.0003,296.6061,269.7854,90.2944,2.683e-05,2.27e-06,0.0,0 STARLINK-3100,1 49144U 21082Q   23164.37004948  .00000227  00000-0  26830-4 0  9990,2 49144  70.0003 296.6061 0003158 269.7854  90.2944 14.98329487 96145,6950.194,96.107,574.254,569.865,0.0
49144.0,STARLINK-3100,PAYLOAD,2023-06-13 18:29:41,14.98300681,0.0002957,70.0004,295.5964,268.5928,91.4893,0.00059892,7.055e-05,0.0,0 STARLINK-3100,1 49144U 21082Q   23164.77061615  .00007055  00000-0  59892-3 0  9997,2 49144  70.0004 295.5964 0002957 268.5928  91.4893 14.98300681 96209,6950.284,96.109,574.204,570.093,0.0
49144.0,STARLINK-3100,PAYLOAD,2023-06-14 02:30:20,14.98331705,0.0003241,70.0,294.7533,278.7601,81.3191,1.7749e-05,1.19e-06,0.0,0 STARLINK-3100,1 49144U 21082Q   23165.10440851  .00000119  00000-0  17749-4 0  9998,2 49144  70.0000 294.7533 0003241 278.7601  81.3191 14.98331705 96251,6950.188,96.107,574.305,569.8,0.0
49144.0,STARLINK-3100,PAYLOAD,2023-06-14 08:54:53,14.9833061,0.0003194,70.0,294.0803,268.8539,91.2254,9.383e-05,1.027e-05,0.0,0 STARLINK-3100,1 49144U 21082Q   23165.37144685  .00001027  00000-0  93830-4 0  9997,2 49144  70.0000 294.0803 0003194 268.8539  91.2254 14.98330610 96299,6950.191,96.107,574.276,569.836,0.0
49144.0,STARLINK-3100,PAYLOAD,2023-06-14 18:31:41,14.98330478,0.0003214,70.0,293.0701,268.3841,91.695,5.091e-05,5.14e-06,0.0,0 STARLINK-3100,1 49144U 21082Q   23165.77200785  .00000514  00000-0  50910-4 0  9997,2 49144  70.0000 293.0701 0003214 268.3841  91.6950 14.98330478 96355,6950.191,96.107,574.29,569.823,0.0
49144.0,STARLINK-3100,PAYLOAD,2023-06-15 10:33:02,14.98331434,0.0003225,70.0,291.387,268.4219,91.6571,6.7347e-05,7.11e-06,0.0,0 STARLINK-3100,1 49144U 21082Q   23166.43960664  .00000711  00000-0  67347-4 0  9991,2 49144  70.0000 291.3870 0003225 268.4219  91.6571 14.98331434 96458,6950.188,96.107,574.295,569.812,0.0
